start=new Date('2022-02-18T00:00:00.000Z').valueOf();
sats=[{"OBJECT_NAME":"STARLINK-1299","PERIAPSIS":"557.725","EPOCH":"2022-02-17T13:42:46.322208","NORAD_CAT_ID":"45418","MEAN_ANOMALY":"261.7158","CLASSIFICATION_TYPE":"U","RCS_SIZE":"LARGE","EPHEMERIS_TYPE":"0","PERIOD":"95.834","SITE":"AFETR","MEAN_ELEMENT_THEORY":"SGP4","SEMIMAJOR_AXIS":"6937.029","ARG_OF_PERICENTER":"98.4019","OBJECT_ID":"2020-019BL","BSTAR":"0.00060536000000","MEAN_MOTION_DOT":"0.00007883","GP_ID":"196204527","APOAPSIS":"560.062","INCLINATION":"53.0019","MEAN_MOTION":"15.02597052","TLE_LINE1":"1 45418U 20019BL  22048.57136947  .00007883  00000-0  60536-3 0  9991","LAUNCH_DATE":"2020-03-18","RA_OF_ASC_NODE":"356.0450","MEAN_MOTION_DDOT":"0.0000000000000","OBJECT_TYPE":"PAYLOAD","REV_AT_EPOCH":"10590","TLE_LINE2":"2 45418  53.0019 356.0450 0001684  98.4019 261.7158 15.02597052105906","DECAY_DATE":null,"ECCENTRICITY":"0.00016840","REF_FRAME":"TEME","COUNTRY_CODE":"US","CENTER_NAME":"EARTH","ELEMENT_SET_NO":"999","FILE":"3304735","TIME_SYSTEM":"UTC"},{"BSTAR":"0.00021172000000","ARG_OF_PERICENTER":"65.9125","OBJECT_ID":"2020-019BM","MEAN_MOTION_DOT":"0.00002873","GP_ID":"196241385","APOAPSIS":"548.443","INCLINATION":"53.0568","LAUNCH_DATE":"2020-03-18","TLE_LINE1":"1 45419U 20019BM  22048.92490946  .00002873  00000-0  21172-3 0  9990","MEAN_MOTION":"15.06398924","OBJECT_NAME":"STARLINK-1308","EPOCH":"2022-02-17T22:11:52.177344","PERIAPSIS":"545.990","NORAD_CAT_ID":"45419","CLASSIFICATION_TYPE":"U","MEAN_ANOMALY":"294.2049","PERIOD":"95.592","EPHEMERIS_TYPE":"0","RCS_SIZE":"LARGE","SITE":"AFETR","MEAN_ELEMENT_THEORY":"SGP4","SEMIMAJOR_AXIS":"6925.352","REF_FRAME":"TEME","ECCENTRICITY":"0.00017710","CENTER_NAME":"EARTH","COUNTRY_CODE":"US","ELEMENT_SET_NO":"999","FILE":"3305402","TIME_SYSTEM":"UTC","RA_OF_ASC_NODE":"334.0303","MEAN_MOTION_DDOT":"0.0000000000000","OBJECT_TYPE":"PAYLOAD","TLE_LINE2":"2 45419  53.0568 334.0303 0001771  65.9125 294.2049 15.06398924106286","DECAY_DATE":null,"REV_AT_EPOCH":"10628"},{"OBJECT_ID":"2020-025A","ARG_OF_PERICENTER":"69.7468","BSTAR":"0.00004324700000","MEAN_MOTION_DOT":"0.00000363","INCLINATION":"53.0557","APOAPSIS":"548.299","GP_ID":"196241647","LAUNCH_DATE":"2020-04-22","TLE_LINE1":"1 45531U 20025A   22048.89359015  .00000363  00000-0  43247-4 0  9999","MEAN_MOTION":"15.06388809","EPOCH":"2022-02-17T21:26:46.188960","PERIAPSIS":"546.197","OBJECT_NAME":"STARLINK-1329","CLASSIFICATION_TYPE":"U","MEAN_ANOMALY":"290.3684","NORAD_CAT_ID":"45531","SITE":"AFETR","PERIOD":"95.593","EPHEMERIS_TYPE":"0","RCS_SIZE":"LARGE","SEMIMAJOR_AXIS":"6925.383","MEAN_ELEMENT_THEORY":"SGP4","REF_FRAME":"TEME","ECCENTRICITY":"0.00015180","CENTER_NAME":"EARTH","COUNTRY_CODE":"US","FILE":"3305402","ELEMENT_SET_NO":"999","TIME_SYSTEM":"UTC","MEAN_MOTION_DDOT":"0.0000000000000","RA_OF_ASC_NODE":"274.1694","OBJECT_TYPE":"PAYLOAD","TLE_LINE2":"2 45531  53.0557 274.1694 0001518  69.7468 290.3684 15.06388809101904","DECAY_DATE":null,"REV_AT_EPOCH":"10190"},{"FILE":"3305402","ELEMENT_SET_NO":"999","TIME_SYSTEM":"UTC","ECCENTRICITY":"0.00019230","REF_FRAME":"TEME","COUNTRY_CODE":"US","CENTER_NAME":"EARTH","OBJECT_TYPE":"PAYLOAD","DECAY_DATE":null,"TLE_LINE2":"2 45532  53.0526 274.1239 0001923  95.5489 264.5720 15.06414621101902","REV_AT_EPOCH":"10190","MEAN_MOTION_DDOT":"0.0000000000000","RA_OF_ASC_NODE":"274.1239","APOAPSIS":"548.500","INCLINATION":"53.0526","GP_ID":"196241898","TLE_LINE1":"1 45532U 20025B   22048.90469307  .00015234  00000-0  10390-2 0  9992","MEAN_MOTION":"15.06414621","LAUNCH_DATE":"2020-04-22","ARG_OF_PERICENTER":"95.5489","OBJECT_ID":"2020-025B","BSTAR":"0.00103900000000","MEAN_MOTION_DOT":"0.00015234","SITE":"AFETR","EPHEMERIS_TYPE":"0","RCS_SIZE":"LARGE","PERIOD":"95.591","MEAN_ELEMENT_THEORY":"SGP4","SEMIMAJOR_AXIS":"6925.304","PERIAPSIS":"545.837","EPOCH":"2022-02-17T21:42:45.481248","OBJECT_NAME":"STARLINK-1338","MEAN_ANOMALY":"264.5720","CLASSIFICATION_TYPE":"U","NORAD_CAT_ID":"45532"},{"TLE_LINE2":"2 45533  53.0479 259.1039 0000720 145.4555 214.6493 15.34427007102114","DECAY_DATE":null,"REV_AT_EPOCH":"10211","OBJECT_TYPE":"PAYLOAD","RA_OF_ASC_NODE":"259.1039","MEAN_MOTION_DDOT":"0.0000000000000","TIME_SYSTEM":"UTC","FILE":"3305402","ELEMENT_SET_NO":"999","COUNTRY_CODE":"US","CENTER_NAME":"EARTH","ECCENTRICITY":"0.00007200","REF_FRAME":"TEME","SEMIMAJOR_AXIS":"6840.760","MEAN_ELEMENT_THEORY":"SGP4","RCS_SIZE":"LARGE","EPHEMERIS_TYPE":"0","PERIOD":"93.846","SITE":"AFETR","NORAD_CAT_ID":"45533","MEAN_ANOMALY":"214.6493","CLASSIFICATION_TYPE":"U","OBJECT_NAME":"STARLINK-1339","PERIAPSIS":"462.132","EPOCH":"2022-02-17T21:21:49.831776","TLE_LINE1":"1 45533U 20025C   22048.89016009  .00037195  00000-0  11055-2 0  9997","MEAN_MOTION":"15.34427007","LAUNCH_DATE":"2020-04-22","GP_ID":"196242148","APOAPSIS":"463.118","INCLINATION":"53.0479","MEAN_MOTION_DOT":"0.00037195","ARG_OF_PERICENTER":"145.4555","OBJECT_ID":"2020-025C","BSTAR":"0.00110550000000"},{"ELEMENT_SET_NO":"999","FILE":"3305402","TIME_SYSTEM":"UTC","ECCENTRICITY":"0.00013850","REF_FRAME":"TEME","COUNTRY_CODE":"US","CENTER_NAME":"EARTH","OBJECT_TYPE":"PAYLOAD","REV_AT_EPOCH":"10190","TLE_LINE2":"2 45534  53.0529 274.0729 0001385  81.5616 278.5530 15.06393692101907","DECAY_DATE":null,"MEAN_MOTION_DDOT":"0.0000000000000","RA_OF_ASC_NODE":"274.0729","APOAPSIS":"548.192","INCLINATION":"53.0529","GP_ID":"196241397","TLE_LINE1":"1 45534U 20025D   22048.91570455  .00003004  00000-0  22050-3 0  9991","MEAN_MOTION":"15.06393692","LAUNCH_DATE":"2020-04-22","ARG_OF_PERICENTER":"81.5616","OBJECT_ID":"2020-025D","BSTAR":"0.00022050000000","MEAN_MOTION_DOT":"0.00003004","SITE":"AFETR","EPHEMERIS_TYPE":"0","RCS_SIZE":"LARGE","PERIOD":"95.593","SEMIMAJOR_AXIS":"6925.368","MEAN_ELEMENT_THEORY":"SGP4","PERIAPSIS":"546.274","EPOCH":"2022-02-17T21:58:36.873120","OBJECT_NAME":"STARLINK-1341","MEAN_ANOMALY":"278.5530","CLASSIFICATION_TYPE":"U","NORAD_CAT_ID":"45534"},{"ELEMENT_SET_NO":"999","FILE":"3305402","TIME_SYSTEM":"UTC","ECCENTRICITY":"0.00015940","REF_FRAME":"TEME","COUNTRY_CODE":"US","CENTER_NAME":"EARTH","OBJECT_TYPE":"PAYLOAD","DECAY_DATE":null,"TLE_LINE2":"2 45535  53.0516 274.2974 0001594  66.3609 293.7547 15.06392392101906","REV_AT_EPOCH":"10190","RA_OF_ASC_NODE":"274.2974","MEAN_MOTION_DDOT":"0.0000000000000","GP_ID":"196241147","INCLINATION":"53.0516","APOAPSIS":"548.341","MEAN_MOTION":"15.06392392","TLE_LINE1":"1 45535U 20025E   22048.86779282  .00003319  00000-0  24163-3 0  9991","LAUNCH_DATE":"2020-04-22","BSTAR":"0.00024163000000","OBJECT_ID":"2020-025E","ARG_OF_PERICENTER":"66.3609","MEAN_MOTION_DOT":"0.00003319","RCS_SIZE":"LARGE","EPHEMERIS_TYPE":"0","PERIOD":"95.593","SITE":"AFETR","SEMIMAJOR_AXIS":"6925.372","MEAN_ELEMENT_THEORY":"SGP4","OBJECT_NAME":"STARLINK-1350","EPOCH":"2022-02-17T20:49:37.299648","PERIAPSIS":"546.133","NORAD_CAT_ID":"45535","MEAN_ANOMALY":"293.7547","CLASSIFICATION_TYPE":"U"},{"GP_ID":"196242399","INCLINATION":"53.0530","APOAPSIS":"548.417","TLE_LINE1":"1 45536U 20025F   22048.87146224  .00003848  00000-0  27704-3 0  9998","MEAN_MOTION":"15.06410525","LAUNCH_DATE":"2020-04-22","BSTAR":"0.00027704000000","OBJECT_ID":"2020-025F","ARG_OF_PERICENTER":"70.5432","MEAN_MOTION_DOT":"0.00003848","RCS_SIZE":"LARGE","EPHEMERIS_TYPE":"0","PERIOD":"95.591","SITE":"AFETR","MEAN_ELEMENT_THEORY":"SGP4","SEMIMAJOR_AXIS":"6925.316","OBJECT_NAME":"STARLINK-1352","EPOCH":"2022-02-17T20:54:54.337536","PERIAPSIS":"545.946","NORAD_CAT_ID":"45536","MEAN_ANOMALY":"289.5750","CLASSIFICATION_TYPE":"U","FILE":"3305402","ELEMENT_SET_NO":"999","TIME_SYSTEM":"UTC","ECCENTRICITY":"0.00017840","REF_FRAME":"TEME","COUNTRY_CODE":"US","CENTER_NAME":"EARTH","OBJECT_TYPE":"PAYLOAD","DECAY_DATE":null,"TLE_LINE2":"2 45536  53.0530 274.2709 0001784  70.5432 289.5750 15.06410525101897","REV_AT_EPOCH":"10189","RA_OF_ASC_NODE":"274.2709","MEAN_MOTION_DDOT":"0.0000000000000"},{"RA_OF_ASC_NODE":"241.4171","MEAN_MOTION_DDOT":"0.0000000000000","TLE_LINE2":"2 45537  52.9996 241.4171 0001490  79.8920 280.2241 15.17690429102337","REV_AT_EPOCH":"10233","DECAY_DATE":null,"OBJECT_TYPE":"PAYLOAD","COUNTRY_CODE":"US","CENTER_NAME":"EARTH","ECCENTRICITY":"0.00014900","REF_FRAME":"TEME","TIME_SYSTEM":"UTC","FILE":"3305402","ELEMENT_SET_NO":"999","NORAD_CAT_ID":"45537","MEAN_ANOMALY":"280.2241","CLASSIFICATION_TYPE":"U","OBJECT_NAME":"STARLINK-1353","PERIAPSIS":"511.798","EPOCH":"2022-02-17T20:05:27.384000","SEMIMAJOR_AXIS":"6890.960","MEAN_ELEMENT_THEORY":"SGP4","RCS_SIZE":"LARGE","EPHEMERIS_TYPE":"0","PERIOD":"94.881","SITE":"AFETR","MEAN_MOTION_DOT":"0.00013210","ARG_OF_PERICENTER":"79.8920","OBJECT_ID":"2020-025G","BSTAR":"0.00066178000000","MEAN_MOTION":"15.17690429","TLE_LINE1":"1 45537U 20025G   22048.83712250  .00013210  00000-0  66178-3 0  9995","LAUNCH_DATE":"2020-04-22","GP_ID":"196242649","APOAPSIS":"513.851","INCLINATION":"52.9996"},{"TIME_SYSTEM":"UTC","FILE":"3305402","ELEMENT_SET_NO":"999","CENTER_NAME":"EARTH","COUNTRY_CODE":"US","REF_FRAME":"TEME","ECCENTRICITY":"0.00017390","DECAY_DATE":null,"TLE_LINE2":"2 45538  53.0532 274.1552 0001739  68.0645 292.0529 15.06395050101904","REV_AT_EPOCH":"10190","OBJECT_TYPE":"PAYLOAD","RA_OF_ASC_NODE":"274.1552","MEAN_MOTION_DDOT":"0.0000000000000","LAUNCH_DATE":"2020-04-22","TLE_LINE1":"1 45538U 20025H   22048.89726965  .00001210  00000-0  10010-3 0  9991","MEAN_MOTION":"15.06395050","GP_ID":"196240897","INCLINATION":"53.0532","APOAPSIS":"548.433","MEAN_MOTION_DOT":"0.00001210","BSTAR":"0.00010010000000","ARG_OF_PERICENTER":"68.0645","OBJECT_ID":"2020-025H","SEMIMAJOR_AXIS":"6925.364","MEAN_ELEMENT_THEORY":"SGP4","PERIOD":"95.592","EPHEMERIS_TYPE":"0","RCS_SIZE":"LARGE","SITE":"AFETR","NORAD_CAT_ID":"45538","CLASSIFICATION_TYPE":"U","MEAN_ANOMALY":"292.0529","OBJECT_NAME":"STARLINK-1362","EPOCH":"2022-02-17T21:32:04.097760","PERIAPSIS":"546.024"}];
